OSCAR 7 (AO-7)          
1 07530U 74089B   26163.99565515 -.00000026  00000+0  12799-3 0  9995
2 07530 101.9901 177.1986 0012526 137.9141 293.2680 12.53698039359990
PHASE 3B (AO-10)        
1 14129U 83058B   26163.02816718 -.00000017  00000+0  00000+0 0  9999
2 14129  25.9085 220.4195 6012628 114.2479 318.0054  2.05870361295384
UOSAT 2 (UO-11)         
1 14781U 84021B   26163.85854639  .00001300  00000+0  13794-3 0  9992
2 14781  97.8056 129.4817 0007223 187.2245 172.8870 14.90773494256489
LUSAT (LO-19)           
1 20442U 90005G   26164.27491357  .00000112  00000+0  56559-4 0  9990
2 20442  98.8851 185.9726 0010912 213.1230 146.9271 14.34122089901831
EYESAT A (AO-27)        
1 22825U 93061C   26164.15406138  .00000089  00000+0  50981-4 0  9998
2 22825  98.6880 231.5690 0009491 110.1109 250.1096 14.30941223706423
ITAMSAT (IO-26)         
1 22826U 93061D   26164.13467698  .00000087  00000+0  49681-4 0  9998
2 22826  98.6828 231.4666 0010080  95.5594 264.6739 14.31367991706731
RADIO ROSTO (RS15)      
1 23439U 94085A   26164.03628286 -.00000062  00000+0 -54877-3 0  9994
2 23439  64.8187 309.9294 0155818   4.6447 355.5883 11.27583562295436
JAS-2 (FO-29)           
1 24278U 96046B   26164.17077485  .00000020  00000+0  52418-4 0  9991
2 24278  98.5242  13.5932 0350860 106.8274 257.1655 13.53274066472627
TECHSAT 1B (GO-32)      
1 25397U 98043D   26163.92005205  .00000055  00000+0  44031-4 0  9996
2 25397  99.0066 156.5710 0000824 172.5768 187.5423 14.24427656450722
ISS (ZARYA)             
1 25544U 98067A   26164.12566316  .00008200  00000+0  15573-3 0  9992
2 25544  51.6335 320.1950 0004891 179.6545 180.4447 15.49201403571127
PCSAT (NO-44)           
1 26931U 01043C   26163.68920803  .00000104  00000+0  69629-4 0  9993
2 26931  67.0508 255.9055 0006097 264.4785  95.5621 14.31954659289800
SAUDISAT 1C (SO-50)     
1 27607U 02058C   26164.24421271  .00000961  00000+0  13060-3 0  9997
2 27607  64.5508 141.1849 0075342 263.2031  96.0498 14.83038952263873
CUTE-1 (CO-55)          
1 27844U 03031E   26163.96278740  .00000273  00000+0  13691-3 0  9997
2 27844  98.6734 172.5745 0009215 190.4426 169.6563 14.24333311191077
CUBESAT XI-IV (CO-57)   
1 27848U 03031J   26164.30054322  .00000231  00000+0  12072-3 0  9994
2 27848  98.6768 172.6242 0008786 208.9475 151.1218 14.23618930190829
MOZHAETS 4 (RS22)       
1 27939U 03042A   26164.29458147  .00000482  00000+0  82531-4 0  9994
2 27939  98.3470 348.5437 0009992 283.6948 249.4660 14.73459157214976
CUBESAT XI-V            
1 28895U 05043F   26164.18991645  .00001326  00000+0  21634-3 0  9996
2 28895  98.2979 319.7278 0013407 213.9462 146.0888 14.72621633101166
CUTE-1.7+APD II (CO-65) 
1 32785U 08021C   26164.20500221  .00005360  00000+0  33898-3 0  9994
2 32785  97.8270 145.5406 0010244  51.3839 308.8305 15.09418945984593
SEEDS II (CO-66)        
1 32791U 08021J   26163.95721681  .00018823  00000+0  59952-3 0  9994
2 32791  97.7514 161.6531 0001704  17.5386 342.5913 15.32612695986642
YUBILEINY (RS30)        
1 32953U 08025A   26164.31599453  .00000099  00000+0  64225-3 0  9994
2 32953  82.5046 357.8494 0019007 322.6359  37.3398 12.43179330819213
KKS-1 (KISEKI)          
1 33499U 09002H   26164.27608280  .00001235  00000+0  15833-3 0  9994
2 33499  98.1193  86.6563 0006728 310.9846  49.0784 14.83114847935616
SWISSCUBE               
1 35932U 09051B   26164.20044227  .00000907  00000+0  18888-3 0  9998
2 35932  98.4039  72.0192 0005729 217.2214 142.8591 14.62474657888572
BEESAT-1                
1 35933U 09051C   26164.27625783  .00000762  00000+0  16281-3 0  9992
2 35933  98.3969  71.7400 0004035 232.2675 127.8160 14.61714735888612
ITUPSAT1                
1 35935U 09051E   26164.26372436  .00000683  00000+0  15114-3 0  9993
2 35935  98.4054  70.9235 0006147 248.6693 111.3850 14.60435247888165
XIWANG-1 (HOPE-1)       
1 36122U 09072B   26164.21592706  .00000396  00000+0  11530-2 0  9992
2 36122 100.4020 118.1111 0006817 241.4197 118.6231 13.16441312792485
O/OREOS (USA 219)       
1 37224U 10062C   26164.17795551  .00002250  00000+0  21804-3 0  9992
2 37224  71.9712  89.4205 0012439  71.8416 288.4108 14.93728493116044
JUGNU                   
1 37839U 11058B   26164.15216560  .00000403  00000+0  70847-4 0  9996
2 37839  19.9620 332.9425 0018601  31.8631 131.2795 14.13775702758459
SRMSAT                  
1 37841U 11058D   26163.50299332  .00000363  00000+0  53009-4 0  9991
2 37841  19.9716  87.8194 0011893 152.1713   3.7826 14.11574639757159
STRAND-1                
1 39090U 13009E   26164.22680756  .00000263  00000+0  10267-3 0  9998
2 39090  98.3921 344.5588 0007559 238.7120 121.3328 14.37161166696491
ZACUBE-1 (TSHEPISOSAT)  
1 39417U 13066B   26164.14131243  .00003691  00000+0  28793-3 0  9998
2 39417  97.8084 126.4562 0040377 261.8292  97.8350 15.01166542680129
GOMX-1                  
1 39430U 13066Q   26164.30462626  .00001784  00000+0  27199-3 0  9993
2 39430  97.6489   5.0132 0130204  89.8856 271.7270 14.69446026669345
